{
  "type": "FeatureCollection",
  "features": [
    {
      "type": "Feature",
      "properties": {
        "norad_id": 36632,
        "name": "COSMOS 2251 DEB",
        "group": "cosmos-2251-debris",
        "lat": -55.166844347603835,
        "lon": 108.51835845345612,
        "alt_km": 769.357528834893,
        "timestamp": "2025-12-27T21:25:02.914423+00:00",
        "meta_object_name": "COSMOS 2251 DEB",
        "meta_object_id": "1993-036BEW",
        "meta_epoch": "2025-12-23T01:31:35.391648",
        "meta_mean_motion": 14.43225962,
        "meta_eccentricity": 0.00327185,
        "meta_inclination": 74.0013,
        "meta_ra_of_asc_node": 273.1539,
        "meta_arg_of_pericenter": 18.5865,
        "meta_mean_anomaly": 341.6478,
        "meta_ephemeris_type": 0,
        "meta_classification_type": "U",
        "meta_norad_cat_id": 36632,
        "meta_element_set_no": 999,
        "meta_rev_at_epoch": 65364,
        "meta_bstar": 0.0008144408,
        "meta_mean_motion_dot": 2.732e-05,
        "meta_mean_motion_ddot": 0,
        "tle_line1": "1 36632U 93036BEW 25357.06360407  .00002732  00000+0  81444-3 0  9996",
        "tle_line2": "2 36632  74.0013 273.1539 0032718  18.5865 341.6478 14.43225962653646"
      },
      "geometry": {
        "type": "Point",
        "coordinates": [
          108.51835845345612,
          -55.166844347603835
        ]
      }
    },
    {
      "type": "Feature",
      "properties": {
        "norad_id": 37084,
        "name": "COSMOS 2251 DEB",
        "group": "cosmos-2251-debris",
        "lat": 24.433246224624668,
        "lon": -56.895789690280196,
        "alt_km": 521.3252689363126,
        "timestamp": "2025-12-27T21:25:02.914434+00:00",
        "meta_object_name": "COSMOS 2251 DEB",
        "meta_object_id": "1993-036BFE",
        "meta_epoch": "2025-12-24T15:57:16.760448",
        "meta_mean_motion": 15.01180609,
        "meta_eccentricity": 0.00968203,
        "meta_inclination": 74.0273,
        "meta_ra_of_asc_node": 137.155,
        "meta_arg_of_pericenter": 214.9103,
        "meta_mean_anomaly": 144.5712,
        "meta_ephemeris_type": 0,
        "meta_classification_type": "U",
        "meta_norad_cat_id": 37084,
        "meta_element_set_no": 999,
        "meta_rev_at_epoch": 66446,
        "meta_bstar": 0.00075136281,
        "meta_mean_motion_dot": 0.00010628,
        "meta_mean_motion_ddot": 0,
        "tle_line1": "1 37084U 93036BFE 25358.66477732  .00010628  00000+0  75136-3 0  9999",
        "tle_line2": "2 37084  74.0273 137.1550 0096820 214.9103 144.5712 15.01180609664465"
      },
      "geometry": {
        "type": "Point",
        "coordinates": [
          -56.895789690280196,
          24.433246224624668
        ]
      }
    },
    {
      "type": "Feature",
      "properties": {
        "norad_id": 37085,
        "name": "COSMOS 2251 DEB",
        "group": "cosmos-2251-debris",
        "lat": -43.78579566341798,
        "lon": 166.92979472048677,
        "alt_km": 433.6608637554991,
        "timestamp": "2025-12-27T21:25:02.914444+00:00",
        "meta_object_name": "COSMOS 2251 DEB",
        "meta_object_id": "1993-036BFF",
        "meta_epoch": "2025-12-27T04:30:40.048128",
        "meta_mean_motion": 15.44029976,
        "meta_eccentricity": 0.0023501,
        "meta_inclination": 73.936,
        "meta_ra_of_asc_node": 184.5036,
        "meta_arg_of_pericenter": 21.9317,
        "meta_mean_anomaly": 338.2892,
        "meta_ephemeris_type": 0,
        "meta_classification_type": "U",
        "meta_norad_cat_id": 37085,
        "meta_element_set_no": 999,
        "meta_rev_at_epoch": 67360,
        "meta_bstar": 0.0022449,
        "meta_mean_motion_dot": 0.00104869,
        "meta_mean_motion_ddot": 0,
        "tle_line1": "1 37085U 93036BFF 25361.18796352  .00104869  00000+0  22449-2 0  9992",
        "tle_line2": "2 37085  73.9360 184.5036 0023501  21.9317 338.2892 15.44029976673608"
      },
      "geometry": {
        "type": "Point",
        "coordinates": [
          166.92979472048677,
          -43.78579566341798
        ]
      }
    },
    {
      "type": "Feature",
      "properties": {
        "norad_id": 37089,
        "name": "COSMOS 2251 DEB",
        "group": "cosmos-2251-debris",
        "lat": -64.3052006797053,
        "lon": -26.351141840805244,
        "alt_km": 643.7508481418517,
        "timestamp": "2025-12-27T21:25:02.914454+00:00",
        "meta_object_name": "COSMOS 2251 DEB",
        "meta_object_id": "1993-036BFK",
        "meta_epoch": "2025-12-21T15:34:23.713248",
        "meta_mean_motion": 14.53124316,
        "meta_eccentricity": 0.01348359,
        "meta_inclination": 74.0376,
        "meta_ra_of_asc_node": 128.9285,
        "meta_arg_of_pericenter": 227.2791,
        "meta_mean_anomaly": 131.6959,
        "meta_ephemeris_type": 0,
        "meta_classification_type": "U",
        "meta_norad_cat_id": 37089,
        "meta_element_set_no": 999,
        "meta_rev_at_epoch": 66239,
        "meta_bstar": 0.0025920124,
        "meta_mean_motion_dot": 0.00012082,
        "meta_mean_motion_ddot": 0,
        "tle_line1": "1 37089U 93036BFK 25355.64888557  .00012082  00000+0  25920-2 0  9991",
        "tle_line2": "2 37089  74.0376 128.9285 0134835 227.2791 131.6959 14.53124316662395"
      },
      "geometry": {
        "type": "Point",
        "coordinates": [
          -26.351141840805244,
          -64.3052006797053
        ]
      }
    },
    {
      "type": "Feature",
      "properties": {
        "norad_id": 37094,
        "name": "COSMOS 2251 DEB",
        "group": "cosmos-2251-debris",
        "lat": -73.39264460800334,
        "lon": -13.83659920626366,
        "alt_km": 824.1234221016448,
        "timestamp": "2025-12-27T21:25:02.914464+00:00",
        "meta_object_name": "COSMOS 2251 DEB",
        "meta_object_id": "1993-036BFQ",
        "meta_epoch": "2025-12-10T15:45:11.030688",
        "meta_mean_motion": 14.37808892,
        "meta_eccentricity": 0.0084108,
        "meta_inclination": 74.1091,
        "meta_ra_of_asc_node": 124.9809,
        "meta_arg_of_pericenter": 91.4784,
        "meta_mean_anomaly": 269.6007,
        "meta_ephemeris_type": 0,
        "meta_classification_type": "U",
        "meta_norad_cat_id": 37094,
        "meta_element_set_no": 999,
        "meta_rev_at_epoch": 84476,
        "meta_bstar": 0.0015212,
        "meta_mean_motion_dot": 4.753e-05,
        "meta_mean_motion_ddot": 0,
        "tle_line1": "1 37094U 93036BFQ 25344.65637767  .00004753  00000+0  15212-2 0  9990",
        "tle_line2": "2 37094  74.1091 124.9809 0084108  91.4784 269.6007 14.37808892844763"
      },
      "geometry": {
        "type": "Point",
        "coordinates": [
          -13.83659920626366,
          -73.39264460800334
        ]
      }
    },
    {
      "type": "Feature",
      "properties": {
        "norad_id": 37095,
        "name": "COSMOS 2251 DEB",
        "group": "cosmos-2251-debris",
        "lat": 61.49202082214281,
        "lon": -49.03332256525995,
        "alt_km": 908.2306882931043,
        "timestamp": "2025-12-27T21:25:02.914475+00:00",
        "meta_object_name": "COSMOS 2251 DEB",
        "meta_object_id": "1993-036BFR",
        "meta_epoch": "2025-12-20T05:48:30.438144",
        "meta_mean_motion": 14.03423265,
        "meta_eccentricity": 0.01937256,
        "meta_inclination": 73.8447,
        "meta_ra_of_asc_node": 176.6944,
        "meta_arg_of_pericenter": 233.1449,
        "meta_mean_anomaly": 125.1788,
        "meta_ephemeris_type": 0,
        "meta_classification_type": "U",
        "meta_norad_cat_id": 37095,
        "meta_element_set_no": 999,
        "meta_rev_at_epoch": 62741,
        "meta_bstar": 0.00075143733,
        "meta_mean_motion_dot": 1.362e-05,
        "meta_mean_motion_ddot": 0,
        "tle_line1": "1 37095U 93036BFR 25354.24201896  .00001362  00000+0  75144-3 0  9991",
        "tle_line2": "2 37095  73.8447 176.6944 0193725 233.1449 125.1788 14.03423265627411"
      },
      "geometry": {
        "type": "Point",
        "coordinates": [
          -49.03332256525995,
          61.49202082214281
        ]
      }
    },
    {
      "type": "Feature",
      "properties": {
        "norad_id": 37108,
        "name": "COSMOS 2251 DEB",
        "group": "cosmos-2251-debris",
        "lat": 60.42324763547359,
        "lon": 82.784079581289,
        "alt_km": 715.6058568575918,
        "timestamp": "2025-12-27T21:25:02.914485+00:00",
        "meta_object_name": "COSMOS 2251 DEB",
        "meta_object_id": "1993-036BGE",
        "meta_epoch": "2025-12-26T20:07:55.391520",
        "meta_mean_motion": 14.41401722,
        "meta_eccentricity": 0.00899652,
        "meta_inclination": 74.044,
        "meta_ra_of_asc_node": 54.4619,
        "meta_arg_of_pericenter": 127.5346,
        "meta_mean_anomaly": 233.4029,
        "meta_ephemeris_type": 0,
        "meta_classification_type": "U",
        "meta_norad_cat_id": 37108,
        "meta_element_set_no": 999,
        "meta_rev_at_epoch": 85710,
        "meta_bstar": 0.00097411201,
        "meta_mean_motion_dot": 3.287e-05,
        "meta_mean_motion_ddot": 0,
        "tle_line1": "1 37108U 93036BGE 25360.83883555  .00003287  00000+0  97411-3 0  9995",
        "tle_line2": "2 37108  74.0440  54.4619 0089965 127.5346 233.4029 14.41401722857104"
      },
      "geometry": {
        "type": "Point",
        "coordinates": [
          82.784079581289,
          60.42324763547359
        ]
      }
    }
  ]
}